{
  "norad_id": 35942,
  "name": "AMAZONAS 2",
  "history": [
    {
      "epoch": "2026-03-28T21:20:27.877920Z",
      "apogee_km": 35800.60563643673,
      "perigee_km": 35771.493795360606,
      "latitude_deg": 0.0214521564595502,
      "longitude_deg": -60.75883039402471,
      "height_km": 35783.86215412106,
      "semi_major_axis_km": 42164.18671589867,
      "eccentricity": 0.00034522,
      "inclination_deg": 1.6072,
      "raan_deg": 84.069,
      "arg_perigee_deg": 278.1713,
      "mean_anomaly_deg": 83.3602,
      "mean_motion_rev_day": 1.0027373
    },
    {
      "epoch": "2026-03-29T02:28:35.748192Z",
      "apogee_km": 35800.60813812571,
      "perigee_km": 35771.51484116785,
      "latitude_deg": 1.5692744254386033,
      "longitude_deg": -60.78720626518176,
      "height_km": 35799.11471140936,
      "semi_major_axis_km": 42164.198489646784,
      "eccentricity": 0.000345,
      "inclination_deg": 1.6077,
      "raan_deg": 84.0657,
      "arg_perigee_deg": 278.6336,
      "mean_anomaly_deg": 160.1465,
      "mean_motion_rev_day": 1.00273688
    },
    {
      "epoch": "2026-03-30T02:26:09.040128Z",
      "apogee_km": 35800.71534082977,
      "perigee_km": 35771.554530359106,
      "latitude_deg": 1.572091026937507,
      "longitude_deg": -60.78045029123253,
      "height_km": 35799.06777368033,
      "semi_major_axis_km": 42164.271935594435,
      "eccentricity": 0.0003458,
      "inclination_deg": 1.6104,
      "raan_deg": 84.0533,
      "arg_perigee_deg": 280.7571,
      "mean_anomaly_deg": 158.4149,
      "mean_motion_rev_day": 1.00273426
    },
    {
      "epoch": "2026-03-30T05:51:07.014816Z",
      "apogee_km": 35800.70379316186,
      "perigee_km": 35771.585140380914,
      "latitude_deg": 1.235653504943442,
      "longitude_deg": -60.79784392601568,
      "height_km": 35798.21595584818,
      "semi_major_axis_km": 42164.28146677139,
      "eccentricity": 0.0003453,
      "inclination_deg": 1.6107,
      "raan_deg": 84.0513,
      "arg_perigee_deg": 281.0556,
      "mean_anomaly_deg": 209.5014,
      "mean_motion_rev_day": 1.00273392
    },
    {
      "epoch": "2026-03-30T09:16:44.658336Z",
      "apogee_km": 35800.705310394056,
      "perigee_km": 35771.60773143527,
      "latitude_deg": -0.033431172261293406,
      "longitude_deg": -60.82794273170033,
      "height_km": 35788.01373794067,
      "semi_major_axis_km": 42164.29352091467,
      "eccentricity": 0.00034505,
      "inclination_deg": 1.6111,
      "raan_deg": 84.0504,
      "arg_perigee_deg": 281.4242,
      "mean_anomaly_deg": 260.6824,
      "mean_motion_rev_day": 1.00273349
    },
    {
      "epoch": "2026-03-30T21:15:35.180640Z",
      "apogee_km": 35800.81357632665,
      "perigee_km": 35771.58020035519,
      "latitude_deg": 0.04126402038677861,
      "longitude_deg": -60.74956719375245,
      "height_km": 35783.07741905571,
      "semi_major_axis_km": 42164.33388834092,
      "eccentricity": 0.00034666,
      "inclination_deg": 1.6124,
      "raan_deg": 84.0434,
      "arg_perigee_deg": 282.5937,
      "mean_anomaly_deg": 79.7247,
      "mean_motion_rev_day": 1.00273205
    },
    {
      "epoch": "2026-03-31T17:47:48.024384Z",
      "apogee_km": 35800.89830953229,
      "perigee_km": 35771.627783020165,
      "latitude_deg": -1.2232767337874757,
      "longitude_deg": -60.75694095861353,
      "height_km": 35772.786831827754,
      "semi_major_axis_km": 42164.400046276234,
      "eccentricity": 0.0003471,
      "inclination_deg": 1.6146,
      "raan_deg": 84.0315,
      "arg_perigee_deg": 284.5051,
      "mean_anomaly_deg": 26.7265,
      "mean_motion_rev_day": 1.00272969
    },
    {
      "epoch": "2026-04-01T10:54:35.231616Z",
      "apogee_km": 35800.981386499436,
      "perigee_km": 35771.651792582554,
      "latitude_deg": -0.7474777911317098,
      "longitude_deg": -60.832209260398926,
      "height_km": 35782.70374599658,
      "semi_major_axis_km": 42164.453589541,
      "eccentricity": 0.0003478,
      "inclination_deg": 1.6164,
      "raan_deg": 84.0217,
      "arg_perigee_deg": 286.0999,
      "mean_anomaly_deg": 282.5444,
      "mean_motion_rev_day": 1.00272778
    }
  ]
}